#aV2023  8 16  0  0  0.00000000     288 DD+AD WGS84 FIT  NGA
## 2275 259200.00000000   300.00000000 60172 0.0000000000000
+   32     1  2  3  4  5  6  7  8  9 10 11 12 13 14 15 16 17
+         18 19 20 21 22 23 24 25 26 27 28 29 30 31 32  0  0
+          0  0  0  0  0  0  0  0  0  0  0  0  0  0  0  0  0
+          0  0  0  0  0  0  0  0  0  0  0  0  0  0  0  0  0
+          0  0  0  0  0  0  0  0  0  0  0  0  0  0  0  0  0
++         2  2  2  2  2  2  2  2  2  2  2  2  2  2  2  2  2
++         2  2  2  2  2  2  2  2  2  2  2  2  2  2  2  0  0
++         0  0  0  0  0  0  0  0  0  0  0  0  0  0  0  0  0
++         0  0  0  0  0  0  0  0  0  0  0  0  0  0  0  0  0
++         0  0  0  0  0  0  0  0  0  0  0  0  0  0  0  0  0
%c cc cc ccc ccc cccc cccc cccc cccc ccccc ccccc ccccc ccccc
%c cc cc ccc ccc cccc cccc cccc cccc ccccc ccccc ccccc ccccc
%f  0.0000000  0.000000000  0.00000000000  0.000000000000000
%f  0.0000000  0.000000000  0.00000000000  0.000000000000000
%i    0    0    0    0      0      0      0      0         0
%i    0    0    0    0      0      0      0      0         0
/*      NGA, ST. LOUIS,MO.                                  
/*   EPHEMERIS COMPUTED FROM 2 DAYS OF DATA                 
/*   EPOCHA v8 SMOOTHER                                     
/*   G2139 IERS2010 SATIGS SATAPC                           
*  2023  8 16  2 50  0.00000000
P  1 -13682.141390 -13654.016797 -18711.035183    168.444816                    
V  1  22824.781022   1446.424283 -17751.187661     -0.013915                    
P  2  -6894.649738 -14308.817892 -20812.916709   -564.990709                    
V  2  27547.155732   -789.282942  -8222.392263      0.041527                    
P  3 -12755.766364 -23241.062494   2283.349289   -185.037623                    
V  3    593.196467  -3672.848609 -31925.039095      0.182875                    
P  4  -6425.093583 -15418.450639  20631.959477    126.911889                    
V  4  16325.206323 -20510.269097 -10364.010084      0.114406                    
P  5   2985.831468  23291.070923  12127.617787   -138.969048                    
V  5  -9457.283975 -12763.865535  26543.081625     -0.014656                    
P  6 -22883.150479   6037.915750  12211.816997    565.664949                    
V  6 -15139.502811  -2850.799747 -27003.550187     -0.052527                    
P  7 -25263.977745  -6672.760195   6490.658018     94.605300                    
V  7   7718.344838  -1929.841075  29793.864040     -0.107844                    
P  8   2299.442916 -22112.376740 -14304.448334   -137.393791                    
V  8  11923.419713 -13969.191944  24023.107338     -0.018308                    
P  9 -13964.607513  -6425.568044  21581.557593    -85.518539                    
V  9  14911.012676 -23232.601234   2677.387549      0.097983                    
P 10  15212.450371  -1745.638367 -21562.473450    -49.459078                    
V 10  11706.494081  25110.821846   5865.622959     -0.015322                    
P 11 -10624.905609  12992.648679  20583.082648   -322.858923                    
V 11 -25782.780932  -4227.421583 -10692.403091     -0.173580                    
P 12   8849.318484  25060.731451  -1384.963381   -413.401011                    
V 12  -2973.253535   -358.128726 -31720.218502     -0.044946                    
P 13 -11624.983037  22004.624758  -9156.068499    560.627543                    
V 13  -9475.401482   6800.803030  29180.337583      0.047161                    
P 14 -16844.133568  -1714.692075 -20479.212603    155.347306                    
V 14  -9660.858057 -24221.948146   9799.274802      0.116588                    
P 15   1407.098438  22118.868496 -14931.096935     68.049931                    
V 15 -10514.008539  15234.680805  22542.115946      0.036139                    
P 16   3296.233613 -21156.361469  15109.827251   -467.663908                    
V 16   9150.107569  17838.429539  22967.105443      0.049900                    
P 17 -19934.035065   9824.372599 -14192.162914    722.779105                    
V 17  10024.879947 -15901.043723 -24246.725634      0.005548                    
P 18  25974.499815   4874.647338   3472.148796   -384.000553                    
V 18  -4572.796401   1792.056313  31531.458601     -0.133805                    
P 19 -20188.881095  15003.667304  -8188.269853    358.243801                    
V 19   4732.785868  -9364.701637 -29904.608512      0.051565                    
P 20  -4693.051096  17529.847996  19489.788053    417.007126                    
V 20 -15279.801311 -19388.540791  13598.032709     -0.020228                    
P 21  -4659.840022 -14720.034813 -21173.666632    150.658374                    
V 21  28035.090496   -381.649580  -4890.588523     -0.006174                    
P 22 -13451.358213   6650.097283 -21461.994408    140.933537                    
V 22  -9882.758113 -26568.485491  -1732.633782     -0.074211                    
P 23  18016.013580  11086.281024 -16160.932053     55.633062                    
V 23   7989.429264  18863.398993  21676.138018      0.047028                    
P 24   9517.058067  14898.301235 -20301.070817   -291.002083                    
V 24 -24942.356921   1286.423269 -10527.128981     -0.114899                    
P 25  16900.848963  17758.417808  10232.506936    462.400311                    
V 25   3589.346369  13150.372094 -27634.949800      0.021639                    
P 26  10371.830634 -12779.026692  20671.199776    232.766134                    
V 26  14067.320843  22707.361970   7285.883550     -0.014995                    
P 27  12075.099028 -23050.783206  -4317.305756    -22.759538                    
V 27   5340.144645  -2691.639362  31522.209846     -0.067513                    
P 28  23798.560502  -6031.999724  10113.379235     75.764877                    
V 28  12751.812811   3042.242443 -28134.712215     -0.034839                    
P 29  12819.213358   7716.562358  21901.356368   -607.840438                    
V 29 -17373.641768  21797.004700   2383.227027     -0.006692                    
P 30 -26456.604077    337.884509  -3489.831437   -496.099255                    
V 30  -4261.125626  -3730.504906  30596.953569      0.030722                    
P 31  16480.103866 -10966.137744  17722.991172   -221.902651                    
V 31  22462.403487   3807.602189 -17928.123017     -0.006282                    
P 32  19198.260288 -13703.937379 -11829.769223   -541.321112                    
V 32  -6461.336077  14188.264963 -26710.450364     -0.068388                    
EOF
